{"fetched_at":"2026-04-04T02:03:33Z","count":15623,"tles":[{"name":"ONEWEB-0578","line1":"1 56067U 23043X   26093.46643503  .00005416  00000+0  13056-1 0  9998","line2":"2 56067  87.9177 258.8597 0001458  93.9674 266.1627 13.21920543148367","category":"Other"},{"name":"STARLINK-32707","line1":"1 62478U 24254S   26093.41085783  .00034431  00000+0  12545-2 0  9993","line2":"2 62478  42.9965 236.7644 0000985 286.0163  74.0580 15.27591137 71434","category":"Starlink"},{"name":"STARLINK-36971","line1":"1 68165U 26049Z   26093.58336806  .00152814  00000+0  10106-2 0  9996","line2":"2 68165  97.2852 114.1106 0001511 116.0045 132.6330 15.75111710  4629","category":"Starlink"},{"name":"FENGYUN 1C DEB","line1":"1 30485U 99025AGX 23179.25692347  .00008241  00000+0  22085-2 0  9998","line2":"2 30485  98.9718  64.2186 0116666 324.1818 160.8842 14.44483177856353","category":"Weather"},{"name":"STARLINK-3552","line1":"1 51813U 22017AX  26093.59060896 -.00001038  00000+0 -47140-4 0  9996","line2":"2 51813  53.2180 217.3657 0001434  83.8430 276.2726 15.08831127227849","category":"Starlink"},{"name":"STARLINK-31278","line1":"1 59163U 24044M   26093.37765436  .00000468  00000+0  26516-4 0  9990","line2":"2 59163  43.0074 327.4023 0001525 274.1508  85.9169 15.27584997117346","category":"Starlink"},{"name":"STARLINK-35035","line1":"1 65407U 25192D   26093.44394006  .00008820  00000+0  30958-3 0  9996","line2":"2 65407  53.1591 117.4181 0001283  84.6698 275.4449 15.30198512 33170","category":"Starlink"},{"name":"FENGYUN 1C DEB","line1":"1 37421U 99025EGP 26092.30513205  .00000279  00000+0  34990-3 0  9995","line2":"2 37421  98.9035  38.9713 0408356 167.6351 193.5175 13.40650572624274","category":"Weather"},{"name":"STARLINK-6356","line1":"1 57363U 23099AM  26093.58336806  .00751378  00000+0  37535-1 0  9990","line2":"2 57363  43.0011 100.0948 0001812 295.5417 226.3361 15.14552645  5772","category":"Starlink"},{"name":"SHIYAN-27 OBJECT E","line1":"1 63603U 25078E   26093.59536713  .00000030  00000+0  10353-3 0  9996","line2":"2 63603  99.6933 101.8642 0000946  98.3791 261.7455 13.57245622 47410","category":"Other"},{"name":"2022-096L","line1":"1 53380U 22096L   23362.49335134  .00029932  00000+0  67413-3 0  9994","line2":"2 53380  97.4031 269.7437 0004833  86.3474 273.8326 15.43223797 77506","category":"Other"},{"name":"STARLINK-32198","line1":"1 60321U 24133W   26093.53323294 -.00003524  00000+0 -10701-3 0  9993","line2":"2 60321  53.1597 181.6857 0001441 318.2943  41.7948 15.30169034 95537","category":"Starlink"},{"name":"STARLINK-35388","line1":"1 66466U 25262L   26093.56690913  .00035764  00000+0  13012-2 0  9997","line2":"2 66466  43.0027 155.4552 0001472 282.4826  77.5861 15.27622241 22717","category":"Starlink"},{"name":"GLOBALSTAR M034","line1":"1 25962U 99062B   26093.40432216 -.00000048  00000+0  51459-3 0  9991","line2":"2 25962  51.9903 336.9844 0013498 228.1675 302.9710 11.79456431172638","category":"Other"},{"name":"STARLINK-2743","line1":"1 48682U 21044AW  26093.31434661 -.00000001  00000+0  12113-4 0  9990","line2":"2 48682  53.1608 310.5700 0001381  92.9674 267.1484 15.30199356268278","category":"Starlink"},{"name":"STARLINK-30802","line1":"1 58150U 23166A   26093.24012333  .00003893  00000+0  14350-3 0  9993","line2":"2 58150  53.1612 105.8767 0002022  37.0519 323.0621 15.30201867136936","category":"Starlink"},{"name":"COSMOS 2251 DEB","line1":"1 34428U 93036RV  23178.80926718  .00007251  00000+0  14586-2 0  9994","line2":"2 34428  74.0361 318.3802 0029659 250.8378 238.3551 14.61468634757046","category":"Other"},{"name":"COSMOS 2563","line1":"1 54223U 22145A   26091.42602954 -.00001295  00000+0  00000+0 0  9996","line2":"2 54223  63.3445 290.2554 7077628 269.5479  16.3510  2.00549140 25029","category":"Other"},{"name":"STARLINK-32378","line1":"1 61064U 24164Q   26093.09326913  .00000438  00000+0  26890-4 0  9990","line2":"2 61064  53.1610 337.7781 0001131  68.5731 291.5390 15.30209999 87211","category":"Starlink"},{"name":"STARLINK-35762","line1":"1 67172U 25303K   26093.61519426  .00024218  00000+0  88648-3 0  9993","line2":"2 67172  43.0014 170.2549 0003545 250.2439 109.8031 15.27583654 16541","category":"Starlink"},{"name":"STARLINK-5375","line1":"1 56140U 23046BA  26093.45586911  .00001786  00000+0  76232-4 0  9995","line2":"2 56140  43.0034   7.4692 0001274 269.3625  90.7080 15.26751664165983","category":"Starlink"},{"name":"STARLINK-37081","line1":"1 68229U 26053Y   26093.61050548  .00112899  00000+0  74867-3 0  9996","line2":"2 68229  97.2835 329.1295 0001376 108.6354 251.5061 15.75163981  3995","category":"Starlink"},{"name":"FENGYUN 1C DEB","line1":"1 30565U 99025ALF 26093.55502859  .00005788  00000+0  29638-2 0  9990","line2":"2 30565  98.4520 322.1835 0141252  36.5287 346.3672 14.10800611975036","category":"Weather"},{"name":"STARLINK-3565","line1":"1 51886U 22022AL  26093.60991747  .00001189  00000+0  92768-4 0  9993","line2":"2 51886  53.2155 247.2473 0001214  94.5911 265.5220 15.08847300227017","category":"Starlink"},{"name":"CZ-2C DEB","line1":"1 59230U 24048C   24080.81802812  .07954348 -71793-5  26639-3 0  9993","line2":"2 59230  28.3874 316.6189 0414427 200.3312 183.9475 15.55099549  1011","category":"Other"},{"name":"STARLINK-34762","line1":"1 65473U 25195R   26093.44719462  .00048331  00000+0  16355-2 0  9994","line2":"2 65473  53.1584 143.2206 0001600  94.0093 266.1091 15.30157152 33767","category":"Starlink"},{"name":"COSMOS 2251 DEB","line1":"1 37538U 93036BNT 23178.43026037  .00008498  00000+0  14620-2 0  9996","line2":"2 37538  74.0171 188.4787 0035713 180.6873 179.4255 14.68302913699737","category":"Other"},{"name":"STARLINK-30170","line1":"1 57431U 23105B   23361.89034395  .00006620  00000+0  50459-3 0  9996","line2":"2 57431  43.0035 304.2717 0001074 278.2148  81.8572 15.02542682 24805","category":"Starlink"},{"name":"HULIANWANG DIGUI-22","line1":"1 63689U 25086C   26093.62473931  .00000098  00000+0  19493-3 0  9993","line2":"2 63689  86.5089 338.1846 0002085  81.1231 279.0139 13.24411919 44996","category":"Other"},{"name":"QIANFAN-11","line1":"1 60389U 24140L   26093.56164407  .00000077  00000+0  10040-3 0  9991","line2":"2 60389  88.9619 287.6191 0012840 229.8474 130.1553 13.51006216 82210","category":"Other"},{"name":"STARLINK-35961","line1":"1 66530U 25265Q   26093.48333017  .00043450  00000+0  15771-2 0  9997","line2":"2 66530  43.0009 138.0583 0001302 274.9026  85.1677 15.27622437 20906","category":"Starlink"},{"name":"ATS 3","line1":"1 03029U 67111A   26093.58489912 -.00000088  00000+0  00000+0 0  9991","line2":"2 03029   2.9865  79.2259 0014918  30.0084 187.9617  1.00271846213888","category":"Other"},{"name":"STARLINK-2683","line1":"1 48462U 21040AL  26093.25411796  .00040552  00000+0  13738-2 0  9995","line2":"2 48462  53.1588  76.9288 0001418  59.9725 300.1416 15.30200069270265","category":"Starlink"},{"name":"CZ-4B R/B","line1":"1 64201U 25115C   25179.60292912  .00058293  32088-5  31962-3 0  9999","line2":"2 64201  97.4310 256.6467 0143959 263.4015  95.0841 15.66441766  4734","category":"Other"},{"name":"COSMOS 2251 DEB","line1":"1 34046U 93036JH  26093.61225271  .00007886  00000+0  20657-2 0  9994","line2":"2 34046  74.0382 161.3942 0078005 219.5367 256.8497 14.47610166894448","category":"Other"},{"name":"STARLINK-5171","line1":"1 54077U 22136AC  26093.57046030  .00001401  00000+0  10606-3 0  9993","line2":"2 54077  53.2158 208.0617 0000921  87.3080 272.8018 15.08840391190941","category":"Starlink"},{"name":"STARLINK-32371","line1":"1 60916U 24154P   26093.50100600 -.00003865  00000+0 -11854-3 0  9995","line2":"2 60916  53.1585 168.5947 0000929  85.9171 274.1936 15.30172179 90133","category":"Starlink"},{"name":"STARLINK-35891","line1":"1 67045U 25294R   26093.52227622  .00032743  00000+0  11933-2 0  9999","line2":"2 67045  43.0015 258.1195 0001708 263.1105  96.9552 15.27602566 18591","category":"Starlink"},{"name":"STARLINK-5910","line1":"1 56000U 23042Q   26093.58336806  .00009545  00000+0  37418-3 0  9999","line2":"2 56000  43.0000 278.9257 0001616 283.7949 218.5158 15.25917568  5774","category":"Starlink"},{"name":"STARLINK-37046","line1":"1 68102U 26044B   26093.58336806 -.01056006  00000+0 -21009-1 0  9994","line2":"2 68102  97.2852  54.8277 0002215 104.8790 153.8931 15.49669815  5407","category":"Starlink"},{"name":"FENGYUN 1C DEB","line1":"1 30388U 99025ADB 26093.57096474  .00001982  00000+0  74225-3 0  9991","line2":"2 30388  98.5903 116.1374 0221786  99.1174  30.4048 14.20103400990190","category":"Weather"},{"name":"STARLINK-3521","line1":"1 51742U 22016AE  26093.61731190 -.00002290  00000+0 -12589-3 0  9990","line2":"2 51742  53.2190 207.4104 0001429  93.4995 266.6160 15.08829225227329","category":"Starlink"},{"name":"CREW DRAGON 8","line1":"1 59097U 24042A   24297.52432310  .00023682  00000+0  41739-3 0  9993","line2":"2 59097  51.6392  39.7175 0009105  97.5589 262.6435 15.50253589 36200","category":"Other"},{"name":"STARLINK-35088","line1":"1 65344U 25189X   26093.58336806  .00004111  00000+0  15100-3 0  9992","line2":"2 65344  53.1588  91.3804 0001207  94.0651 291.4277 15.30166444  5825","category":"Starlink"},{"name":"STARLINK-33786","line1":"1 63514U 25071X   26093.10338779  .00019986  00000+0  68464-3 0  9995","line2":"2 63514  53.1602  26.7743 0001034  84.1639 275.9480 15.30222073 56120","category":"Starlink"},{"name":"STARLINK-32200","line1":"1 60258U 24131D   26093.56460966  .00014523  00000+0  50166-3 0  9999","line2":"2 60258  53.1605 297.1351 0001480  89.7032 270.4139 15.30190897 95523","category":"Starlink"},{"name":"STARLINK-32010","line1":"1 60279U 24132B   26093.55513588 -.00000419  00000+0 -20160-5 0  9995","line2":"2 60279  53.1604 297.2036 0001498  92.8630 267.2542 15.30186538 95365","category":"Starlink"},{"name":"CZ-12 R/B","line1":"1 66421U 25258K   25343.81002758  .00000324  00000+0  14504-3 0  9994","line2":"2 66421  49.9957 270.6602 0064543 238.8620 120.5960 14.42322931  4309","category":"Other"}]}